start=new Date('2022-04-23T00:00:00.000Z').valueOf();
sats=[{"MEAN_MOTION_DDOT":"0.0000000000000","COUNTRY_CODE":"US","LAUNCH_DATE":"2020-10-18","ARG_OF_PERICENTER":"42.7788","OBJECT_TYPE":"PAYLOAD","SITE":"AFETR","EPHEMERIS_TYPE":"0","ELEMENT_SET_NO":"999","CENTER_NAME":"EARTH","DECAY_DATE":null,"SEMIMAJOR_AXIS":"6925.359","TIME_SYSTEM":"UTC","REV_AT_EPOCH":"8331","MEAN_ANOMALY":"317.3365","ECCENTRICITY":"0.00021100","EPOCH":"2022-04-22T11:26:49.052832","RCS_SIZE":"LARGE","INCLINATION":"53.0543","PERIOD":"95.592","TLE_LINE1":"1 46682U 20073N   22112.47695663 -.00000345  00000-0 -42411-5 0  9993","RA_OF_ASC_NODE":"138.7218","MEAN_ELEMENT_THEORY":"SGP4","OBJECT_NAME":"STARLINK-1776","APOAPSIS":"548.685","MEAN_MOTION":"15.06396632","OBJECT_ID":"2020-073N","FILE":"3411458","GP_ID":"201824700","TLE_LINE2":"2 46682  53.0543 138.7218 0002110  42.7788 317.3365 15.06396632 83312","NORAD_CAT_ID":"46682","REF_FRAME":"TEME","CLASSIFICATION_TYPE":"U","BSTAR":"-0.00000424110000","PERIAPSIS":"545.763","MEAN_MOTION_DOT":"-0.00000345"},{"SITE":"AFETR","OBJECT_TYPE":"PAYLOAD","EPHEMERIS_TYPE":"0","ARG_OF_PERICENTER":"56.3604","LAUNCH_DATE":"2020-10-18","COUNTRY_CODE":"US","MEAN_MOTION_DDOT":"0.0000000000000","EPOCH":"2022-04-22T14:21:18.186624","ECCENTRICITY":"0.00017600","MEAN_ANOMALY":"303.7553","REV_AT_EPOCH":"8354","SEMIMAJOR_AXIS":"6925.337","TIME_SYSTEM":"UTC","DECAY_DATE":null,"CENTER_NAME":"EARTH","ELEMENT_SET_NO":"999","OBJECT_ID":"2020-073Q","APOAPSIS":"548.421","MEAN_MOTION":"15.06403882","OBJECT_NAME":"STARLINK-1780","MEAN_ELEMENT_THEORY":"SGP4","RA_OF_ASC_NODE":"123.1797","TLE_LINE1":"1 46684U 20073Q   22112.59812716  .00001352  00000-0  10965-3 0  9992","PERIOD":"95.592","RCS_SIZE":"LARGE","INCLINATION":"53.0551","MEAN_MOTION_DOT":"0.00001352","PERIAPSIS":"545.983","BSTAR":"0.00010965000000","CLASSIFICATION_TYPE":"U","REF_FRAME":"TEME","TLE_LINE2":"2 46684  53.0551 123.1797 0001760  56.3604 303.7553 15.06403882 83540","NORAD_CAT_ID":"46684","GP_ID":"201823449","FILE":"3411458"},{"ARG_OF_PERICENTER":"46.7216","SITE":"AFETR","OBJECT_TYPE":"PAYLOAD","EPHEMERIS_TYPE":"0","MEAN_MOTION_DDOT":"0.0000000000000","COUNTRY_CODE":"US","LAUNCH_DATE":"2020-10-18","EPOCH":"2022-04-22T12:30:30.703680","ECCENTRICITY":"0.00019280","REV_AT_EPOCH":"8331","MEAN_ANOMALY":"313.3933","TIME_SYSTEM":"UTC","SEMIMAJOR_AXIS":"6925.348","CENTER_NAME":"EARTH","DECAY_DATE":null,"ELEMENT_SET_NO":"999","OBJECT_ID":"2020-073R","OBJECT_NAME":"STARLINK-1781","MEAN_MOTION":"15.06400330","APOAPSIS":"548.548","RA_OF_ASC_NODE":"138.5454","MEAN_ELEMENT_THEORY":"SGP4","TLE_LINE1":"1 46685U 20073R   22112.52118870  .00000790  00000-0  71906-4 0  9994","PERIOD":"95.592","RCS_SIZE":"LARGE","INCLINATION":"53.0533","MEAN_MOTION_DOT":"0.00000790","PERIAPSIS":"545.877","BSTAR":"0.00007190600000","CLASSIFICATION_TYPE":"U","REF_FRAME":"TEME","FILE":"3411458","TLE_LINE2":"2 46685  53.0533 138.5454 0001928  46.7216 313.3933 15.06400330 83318","NORAD_CAT_ID":"46685","GP_ID":"201823699"},{"ECCENTRICITY":"0.00017160","EPOCH":"2022-04-22T08:52:53.686848","CENTER_NAME":"EARTH","DECAY_DATE":null,"ELEMENT_SET_NO":"999","REV_AT_EPOCH":"8329","MEAN_ANOMALY":"308.4642","TIME_SYSTEM":"UTC","SEMIMAJOR_AXIS":"6925.387","ARG_OF_PERICENTER":"51.6501","SITE":"AFETR","OBJECT_TYPE":"PAYLOAD","EPHEMERIS_TYPE":"0","MEAN_MOTION_DDOT":"0.0000000000000","COUNTRY_CODE":"US","LAUNCH_DATE":"2020-10-18","BSTAR":"-0.00001421700000","MEAN_MOTION_DOT":"-0.00000493","PERIAPSIS":"546.063","REF_FRAME":"TEME","FILE":"3411458","GP_ID":"201823951","TLE_LINE2":"2 46686  53.0549 139.2153 0001716  51.6501 308.4642 15.06387594 83292","NORAD_CAT_ID":"46686","CLASSIFICATION_TYPE":"U","OBJECT_NAME":"STARLINK-1783","APOAPSIS":"548.440","MEAN_MOTION":"15.06387594","RA_OF_ASC_NODE":"139.2153","MEAN_ELEMENT_THEORY":"SGP4","OBJECT_ID":"2020-073S","RCS_SIZE":"LARGE","INCLINATION":"53.0549","TLE_LINE1":"1 46686U 20073S   22112.37006582 -.00000493  00000-0 -14217-4 0  9998","PERIOD":"95.593"},{"SEMIMAJOR_AXIS":"6925.321","TIME_SYSTEM":"UTC","REV_AT_EPOCH":"8377","MEAN_ANOMALY":"319.4587","ELEMENT_SET_NO":"999","CENTER_NAME":"EARTH","DECAY_DATE":null,"EPOCH":"2022-04-22T06:58:06.698784","ECCENTRICITY":"0.00022000","MEAN_MOTION_DDOT":"0.0000000000000","COUNTRY_CODE":"US","LAUNCH_DATE":"2020-10-18","ARG_OF_PERICENTER":"40.6566","SITE":"AFETR","OBJECT_TYPE":"PAYLOAD","EPHEMERIS_TYPE":"0","CLASSIFICATION_TYPE":"U","FILE":"3411458","TLE_LINE2":"2 46687  53.0552 104.5689 0002200  40.6566 319.4587 15.06408922 83776","GP_ID":"201824201","NORAD_CAT_ID":"46687","REF_FRAME":"TEME","PERIAPSIS":"545.663","MEAN_MOTION_DOT":"-0.00000343","BSTAR":"-0.00000410380000","PERIOD":"95.592","TLE_LINE1":"1 46687U 20073T   22112.29035531 -.00000343  00000-0 -41038-5 0  9992","INCLINATION":"53.0552","RCS_SIZE":"LARGE","OBJECT_ID":"2020-073T","RA_OF_ASC_NODE":"104.5689","MEAN_ELEMENT_THEORY":"SGP4","OBJECT_NAME":"STARLINK-1784","APOAPSIS":"548.710","MEAN_MOTION":"15.06408922"},{"BSTAR":"0.00009839800000","PERIAPSIS":"545.975","MEAN_MOTION_DOT":"0.00001184","TLE_LINE2":"2 46689  53.0528 138.8734 0001820  41.2778 318.8348 15.06392920 84556","NORAD_CAT_ID":"46689","GP_ID":"201822950","FILE":"3411458","REF_FRAME":"TEME","CLASSIFICATION_TYPE":"U","MEAN_ELEMENT_THEORY":"SGP4","RA_OF_ASC_NODE":"138.8734","APOAPSIS":"548.496","MEAN_MOTION":"15.06392920","OBJECT_NAME":"STARLINK-1788","OBJECT_ID":"2020-073V","INCLINATION":"53.0528","RCS_SIZE":"LARGE","PERIOD":"95.593","TLE_LINE1":"1 46689U 20073V   22112.44747434  .00001184  00000-0  98398-4 0  9995","ECCENTRICITY":"0.00018200","EPOCH":"2022-04-22T10:44:21.782976","ELEMENT_SET_NO":"999","DECAY_DATE":null,"CENTER_NAME":"EARTH","SEMIMAJOR_AXIS":"6925.370","TIME_SYSTEM":"UTC","MEAN_ANOMALY":"318.8348","REV_AT_EPOCH":"8455","OBJECT_TYPE":"PAYLOAD","SITE":"AFETR","EPHEMERIS_TYPE":"0","ARG_OF_PERICENTER":"41.2778","LAUNCH_DATE":"2020-10-18","MEAN_MOTION_DDOT":"0.0000000000000","COUNTRY_CODE":"US"},{"ARG_OF_PERICENTER":"67.0935","SITE":"AFETR","OBJECT_TYPE":"PAYLOAD","EPHEMERIS_TYPE":"0","MEAN_MOTION_DDOT":"0.0000000000000","COUNTRY_CODE":"US","LAUNCH_DATE":"2020-10-18","ECCENTRICITY":"0.00014670","EPOCH":"2022-04-22T09:09:28.162944","CENTER_NAME":"EARTH","DECAY_DATE":null,"ELEMENT_SET_NO":"999","REV_AT_EPOCH":"8364","MEAN_ANOMALY":"293.0209","TIME_SYSTEM":"UTC","SEMIMAJOR_AXIS":"6925.329","OBJECT_NAME":"STARLINK-1789","APOAPSIS":"548.210","MEAN_MOTION":"15.06406480","RA_OF_ASC_NODE":"114.1546","MEAN_ELEMENT_THEORY":"SGP4","OBJECT_ID":"2020-073W","INCLINATION":"53.0547","RCS_SIZE":"LARGE","TLE_LINE1":"1 46690U 20073W   22112.38157596  .00001088  00000-0  91919-4 0  9999","PERIOD":"95.592","BSTAR":"0.00009191900000","MEAN_MOTION_DOT":"0.00001088","PERIAPSIS":"546.178","REF_FRAME":"TEME","FILE":"3411458","TLE_LINE2":"2 46690  53.0547 114.1546 0001467  67.0935 293.0209 15.06406480 83641","NORAD_CAT_ID":"46690","GP_ID":"201823200","CLASSIFICATION_TYPE":"U"},{"RCS_SIZE":"LARGE","INCLINATION":"53.0522","PERIOD":"95.592","TLE_LINE1":"1 46691U 20073X   22112.51335158  .00002212  00000-0  16737-3 0  9991","MEAN_ELEMENT_THEORY":"SGP4","RA_OF_ASC_NODE":"123.5782","MEAN_MOTION":"15.06404837","APOAPSIS":"548.600","OBJECT_NAME":"STARLINK-1790","OBJECT_ID":"2020-073X","GP_ID":"201832047","TLE_LINE2":"2 46691  53.0522 123.5782 0002023  49.3102 310.8063 15.06404837 84000","NORAD_CAT_ID":"46691","FILE":"3411642","REF_FRAME":"TEME","CLASSIFICATION_TYPE":"U","BSTAR":"0.00016737000000","PERIAPSIS":"545.798","MEAN_MOTION_DOT":"0.00002212","LAUNCH_DATE":"2020-10-18","COUNTRY_CODE":"US","MEAN_MOTION_DDOT":"0.0000000000000","OBJECT_TYPE":"PAYLOAD","SITE":"AFETR","EPHEMERIS_TYPE":"0","ARG_OF_PERICENTER":"49.3102","ELEMENT_SET_NO":"999","DECAY_DATE":null,"CENTER_NAME":"EARTH","SEMIMAJOR_AXIS":"6925.334","TIME_SYSTEM":"UTC","MEAN_ANOMALY":"310.8063","REV_AT_EPOCH":"8400","ECCENTRICITY":"0.00020230","EPOCH":"2022-04-22T12:19:13.576512"},{"LAUNCH_DATE":"2020-10-18","MEAN_MOTION_DDOT":"0.0000000000000","COUNTRY_CODE":"US","SITE":"AFETR","EPHEMERIS_TYPE":"0","OBJECT_TYPE":"PAYLOAD","ARG_OF_PERICENTER":"48.5390","SEMIMAJOR_AXIS":"6925.371","TIME_SYSTEM":"UTC","MEAN_ANOMALY":"311.5746","REV_AT_EPOCH":"8329","ELEMENT_SET_NO":"999","DECAY_DATE":null,"CENTER_NAME":"EARTH","EPOCH":"2022-04-22T08:47:35.212128","ECCENTRICITY":"0.00017210","PERIOD":"95.593","TLE_LINE1":"1 46692U 20073Y   22112.36637977 -.00000729  00000-0 -30027-4 0  9991","INCLINATION":"53.0539","RCS_SIZE":"LARGE","OBJECT_ID":"2020-073Y","MEAN_ELEMENT_THEORY":"SGP4","RA_OF_ASC_NODE":"139.2196","APOAPSIS":"548.428","MEAN_MOTION":"15.06392720","OBJECT_NAME":"STARLINK-1791","CLASSIFICATION_TYPE":"U","TLE_LINE2":"2 46692  53.0539 139.2196 0001721  48.5390 311.5746 15.06392720 83299","GP_ID":"201824701","NORAD_CAT_ID":"46692","FILE":"3411458","REF_FRAME":"TEME","PERIAPSIS":"546.044","MEAN_MOTION_DOT":"-0.00000729","BSTAR":"-0.00003002700000"},{"EPHEMERIS_TYPE":"0","SITE":"AFETR","OBJECT_TYPE":"PAYLOAD","ARG_OF_PERICENTER":"40.0938","LAUNCH_DATE":"2020-10-18","COUNTRY_CODE":"US","MEAN_MOTION_DDOT":"0.0000000000000","ECCENTRICITY":"0.00022590","EPOCH":"2022-04-22T17:11:08.940480","DECAY_DATE":null,"CENTER_NAME":"EARTH","ELEMENT_SET_NO":"999","MEAN_ANOMALY":"320.0217","REV_AT_EPOCH":"8402","TIME_SYSTEM":"UTC","SEMIMAJOR_AXIS":"6925.320","MEAN_MOTION":"15.06409190","APOAPSIS":"548.750","OBJECT_NAME":"STARLINK-1792","MEAN_ELEMENT_THEORY":"SGP4","RA_OF_ASC_NODE":"122.6624","OBJECT_ID":"2020-073Z","INCLINATION":"53.0538","RCS_SIZE":"LARGE","TLE_LINE1":"1 46693U 20073Z   22112.71607570  .00001912  00000-0  14721-3 0  9992","PERIOD":"95.592","BSTAR":"0.00014721000000","MEAN_MOTION_DOT":"0.00001912","PERIAPSIS":"545.621","REF_FRAME":"TEME","GP_ID":"201833613","TLE_LINE2":"2 46693  53.0538 122.6624 0002259  40.0938 320.0217 15.06409190 84023","NORAD_CAT_ID":"46693","FILE":"3411729","CLASSIFICATION_TYPE":"U"}];
